NORAD_CAT_ID,OBJECT_NAME,OBJECT_TYPE,EPOCH,MEAN_MOTION,ECCENTRICITY,INCLINATION,RA_OF_ASC_NODE,ARG_OF_PERICENTER,MEAN_ANOMALY,BSTAR,MEAN_MOTION_DOT,MEAN_MOTION_DDOT,TLE_LINE0,TLE_LINE1,TLE_LINE2,SEMIMAJOR_AXIS,PERIOD,APOGEE,PERIGEE,DECAYED
51894.0,STARLINK-3595,PAYLOAD,2024-02-13 11:18:27,15.08848148,0.0001554,53.2182,149.4284,112.0187,248.097,-0.00018283,-3.197e-05,0.0,0 STARLINK-3595,1 51894U 22022AU  24044.47115644 -.00003197  00000-0 -18283-3 0  9998,2 51894  53.2182 149.4284 0001554 112.0187 248.0970 15.08848148109295,6917.855,95.437,540.796,538.645,0.0
51894.0,STARLINK-3595,PAYLOAD,2024-02-13 14:29:14,15.08851112,0.0001515,53.2177,148.8333,93.4674,266.6491,-0.00015354,-2.732e-05,0.0,0 STARLINK-3595,1 51894U 22022AU  24044.60363427 -.00002732  00000-0 -15354-3 0  9997,2 51894  53.2177 148.8333 0001515  93.4674 266.6491 15.08851112109319,6917.846,95.437,540.759,538.663,0.0
51894.0,STARLINK-3595,PAYLOAD,2024-02-14 12:44:36,15.08853093,0.0001289,53.2163,144.6706,97.4079,262.706,1.4915e-05,-5e-07,0.0,0 STARLINK-3595,1 51894U 22022AU  24045.53098377 -.00000050  00000-0  14915-4 0  9992,2 51894  53.2163 144.6706 0001289  97.4079 262.7060 15.08853093109457,6917.84,95.437,540.597,538.814,0.0
51894.0,STARLINK-3595,PAYLOAD,2024-02-14 14:20:00,15.08854486,0.0001338,53.216,144.3742,89.1125,271.002,4.2119e-05,3.83e-06,0.0,0 STARLINK-3595,1 51894U 22022AU  24045.59722241  .00000383  00000-0  42119-4 0  9997,2 51894  53.2160 144.3742 0001338  89.1125 271.0020 15.08854486109463,6917.836,95.437,540.627,538.776,0.0
51894.0,STARLINK-3595,PAYLOAD,2024-02-15 11:00:01,15.0884428,0.0001609,53.2182,140.5077,75.6885,284.4285,0.00014704,2.053e-05,0.0,0 STARLINK-3595,1 51894U 22022AU  24046.45834624  .00002053  00000-0  14704-3 0  9996,2 51894  53.2182 140.5077 0001609  75.6885 284.4285 15.08844280109596,6917.867,95.437,540.845,538.619,0.0
51894.0,STARLINK-3595,PAYLOAD,2024-02-15 12:35:24,15.08845275,0.0001504,53.2171,140.2101,93.5751,266.5414,0.00015894,2.243e-05,0.0,0 STARLINK-3595,1 51894U 22022AU  24046.52458428  .00002243  00000-0  15894-3 0  9990,2 51894  53.2171 140.2101 0001504  93.5751 266.5414 15.08845275109606,6917.864,95.437,540.77,538.689,0.0
51894.0,STARLINK-3595,PAYLOAD,2024-02-15 23:43:06,15.0883907,0.0001469,53.2163,138.1256,110.8208,249.2942,3.3925e-05,2.52e-06,0.0,0 STARLINK-3595,1 51894U 22022AU  24046.98826918  .00000252  00000-0  33925-4 0  9997,2 51894  53.2163 138.1256 0001469 110.8208 249.2942 15.08839070109671,6917.883,95.438,540.764,538.732,0.0
51894.0,STARLINK-3595,PAYLOAD,2024-02-16 12:26:11,15.08844465,0.0001527,53.2174,135.7484,89.1659,270.9508,-0.00010288,-1.925e-05,0.0,0 STARLINK-3595,1 51894U 22022AU  24047.51819075 -.00001925  00000-0 -10288-3 0  9999,2 51894  53.2174 135.7484 0001527  89.1659 270.9508 15.08844465109754,6917.867,95.437,540.788,538.675,0.0
51894.0,STARLINK-3595,PAYLOAD,2024-02-17 12:16:59,15.08836665,0.0001597,53.2173,131.2868,96.9026,263.2148,-2.8494e-05,-7.41e-06,0.0,0 STARLINK-3595,1 51894U 22022AU  24048.51179644 -.00000741  00000-0 -28494-4 0  9995,2 51894  53.2173 131.2868 0001597  96.9026 263.2148 15.08836665109906,6917.891,95.438,540.86,538.651,0.0
51894.0,STARLINK-3595,PAYLOAD,2024-02-17 21:49:18,15.08827086,0.0001624,53.2177,129.5038,98.7882,261.3294,0.0001219,1.652e-05,0.0,0 STARLINK-3595,1 51894U 22022AU  24048.90924128  .00001652  00000-0  12190-3 0  9998,2 51894  53.2177 129.5038 0001624  98.7882 261.3294 15.08827086109964,6917.92,95.438,540.908,538.661,0.0
51894.0,STARLINK-3595,PAYLOAD,2024-02-18 12:07:45,15.08845643,0.0001582,53.2173,126.8295,88.3435,271.7738,0.00014431,2.01e-05,0.0,0 STARLINK-3595,1 51894U 22022AU  24049.50539249  .00002010  00000-0  14431-3 0  9990,2 51894  53.2173 126.8295 0001582  88.3435 271.7738 15.08845643110056,6917.863,95.437,540.823,538.634,0.0
51894.0,STARLINK-3595,PAYLOAD,2024-02-18 21:40:05,15.08841406,0.0001549,53.2168,125.0391,83.5514,276.5655,9.5344e-05,1.23e-05,0.0,0 STARLINK-3595,1 51894U 22022AU  24049.90283566  .00001230  00000-0  95344-4 0  9998,2 51894  53.2168 125.0391 0001549  83.5514 276.5655 15.08841406110117,6917.876,95.437,540.813,538.67,0.0
51894.0,STARLINK-3595,PAYLOAD,2024-02-19 11:58:33,15.08836672,0.0001418,53.2163,122.3689,99.2759,260.8394,8.1051e-05,1.002e-05,0.0,0 STARLINK-3595,1 51894U 22022AU  24050.49900170  .00001002  00000-0  81051-4 0  9998,2 51894  53.2163 122.3689 0001418  99.2759 260.8394 15.08836672110207,6917.891,95.438,540.737,538.775,0.0
51894.0,STARLINK-3595,PAYLOAD,2024-02-19 21:30:52,15.08837418,0.0001381,53.2165,120.5826,87.6698,272.4452,7.9742e-05,9.81e-06,0.0,0 STARLINK-3595,1 51894U 22022AU  24050.89644162  .00000981  00000-0  79742-4 0  9997,2 51894  53.2165 120.5826 0001381  87.6698 272.4452 15.08837418110263,6917.888,95.438,540.709,538.798,0.0
51894.0,STARLINK-3595,PAYLOAD,2024-02-20 11:49:21,15.08836287,0.0001751,53.218,117.908,96.5228,263.5964,-1.9255e-05,-5.94e-06,0.0,0 STARLINK-3595,1 51894U 22022AU  24051.49260814 -.00000594  00000-0 -19255-4 0  9997,2 51894  53.2180 117.9080 0001751  96.5228 263.5964 15.08836287110353,6917.892,95.438,540.968,538.545,0.0
51894.0,STARLINK-3595,PAYLOAD,2024-02-21 11:40:07,15.08847493,0.0001539,53.2172,113.4487,97.0764,263.0403,0.00011546,1.55e-05,0.0,0 STARLINK-3595,1 51894U 22022AU  24052.48619746  .00001550  00000-0  11546-3 0  9994,2 51894  53.2172 113.4487 0001539  97.0764 263.0403 15.08847493110502,6917.857,95.437,540.787,538.658,0.0
51894.0,STARLINK-3595,PAYLOAD,2024-02-21 13:15:30,15.08850282,0.0001549,53.2173,113.1511,96.7056,263.4112,0.00013555,1.871e-05,0.0,0 STARLINK-3595,1 51894U 22022AU  24052.55243482  .00001871  00000-0  13555-3 0  9990,2 51894  53.2173 113.1511 0001549  96.7056 263.4112 15.08850282110511,6917.849,95.437,540.786,538.642,0.0
51894.0,STARLINK-3595,PAYLOAD,2024-02-21 21:12:26,15.08850889,0.0001445,53.2187,111.6588,94.3182,265.7976,-9.9223e-05,-1.867e-05,0.0,0 STARLINK-3595,1 51894U 22022AU  24052.88363773 -.00001867  00000-0 -99223-4 0  9996,2 51894  53.2187 111.6588 0001445  94.3182 265.7976 15.08850889110563,6917.847,95.437,540.712,538.712,0.0
51894.0,STARLINK-3595,PAYLOAD,2024-02-22 03:33:59,15.08836824,0.0001814,53.2177,110.4752,86.7752,273.3448,0.0001085,1.439e-05,0.0,0 STARLINK-3595,1 51894U 22022AU  24053.14860531  .00001439  00000-0  10850-3 0  9991,2 51894  53.2177 110.4752 0001814  86.7752 273.3448 15.08836824110607,6917.89,95.438,541.01,538.5,0.0
51894.0,STARLINK-3595,PAYLOAD,2024-02-22 09:55:31,15.08839891,0.0001711,53.217,109.2835,87.5524,272.5664,8.3034e-05,1.034e-05,0.0,0 STARLINK-3595,1 51894U 22022AU  24053.41356478  .00001034  00000-0  83034-4 0  9997,2 51894  53.2170 109.2835 0001711  87.5524 272.5664 15.08839891110642,6917.881,95.438,540.929,538.562,0.0
51894.0,STARLINK-3595,PAYLOAD,2024-02-22 21:03:13,15.08840682,0.0001771,53.2172,107.2035,81.6916,278.4277,5.8345e-05,6.41e-06,0.0,0 STARLINK-3595,1 51894U 22022AU  24053.87724532  .00000641  00000-0  58345-4 0  9997,2 51894  53.2172 107.2035 0001771  81.6916 278.4277 15.08840682110713,6917.878,95.438,540.968,538.518,0.0
51894.0,STARLINK-3595,PAYLOAD,2024-02-23 09:46:18,15.08849559,0.0001535,53.2161,104.8232,88.9816,271.1352,3.5258e-05,2.73e-06,0.0,0 STARLINK-3595,1 51894U 22022AU  24054.40715802  .00000273  00000-0  35258-4 0  9996,2 51894  53.2161 104.8232 0001535  88.9816 271.1352 15.08849559110794,6917.851,95.437,540.778,538.654,0.0
51894.0,STARLINK-3595,PAYLOAD,2024-02-23 12:57:04,15.08852592,0.0001569,53.2162,104.2279,92.3668,267.7503,6.0739e-05,6.79e-06,0.0,0 STARLINK-3595,1 51894U 22022AU  24054.53963519  .00000679  00000-0  60739-4 0  9992,2 51894  53.2162 104.2279 0001569  92.3668 267.7503 15.08852592110814,6917.842,95.437,540.792,538.621,0.0
51894.0,STARLINK-3595,PAYLOAD,2024-02-24 03:15:33,15.08833779,0.0001429,53.2154,101.5484,100.5168,259.5985,0.00014688,2.05e-05,0.0,0 STARLINK-3595,1 51894U 22022AU  24055.13580372  .00002050  00000-0  14688-3 0  9997,2 51894  53.2154 101.5484 0001429 100.5168 259.5985 15.08833779110904,6917.899,95.438,540.753,538.776,0.0
51894.0,STARLINK-3595,PAYLOAD,2024-02-24 12:47:52,15.08843853,0.0001438,53.2161,99.7667,90.8003,269.3154,8.5645e-05,1.075e-05,0.0,0 STARLINK-3595,1 51894U 22022AU  24055.53324093  .00001075  00000-0  85645-4 0  9995,2 51894  53.2161  99.7667 0001438  90.8003 269.3154 15.08843853110969,6917.869,95.437,540.728,538.739,0.0
51894.0,STARLINK-3595,PAYLOAD,2024-02-25 12:38:38,15.08854679,0.0001464,53.217,95.3059,88.7983,271.3177,6.4956e-05,7.46e-06,0.0,0 STARLINK-3595,1 51894U 22022AU  24056.52683475  .00000746  00000-0  64956-4 0  9993,2 51894  53.2170  95.3059 0001464  88.7983 271.3177 15.08854679111112,6917.836,95.437,540.713,538.688,0.0
51894.0,STARLINK-3595,PAYLOAD,2024-02-25 19:00:11,15.08846676,0.0001462,53.2159,94.1155,86.49,273.626,8.7902e-05,1.112e-05,0.0,0 STARLINK-3595,1 51894U 22022AU  24056.79179834  .00001112  00000-0  87902-4 0  9995,2 51894  53.2159  94.1155 0001462  86.4900 273.6260 15.08846676111155,6917.86,95.437,540.736,538.714,0.0
51894.0,STARLINK-3595,PAYLOAD,2024-02-26 02:57:07,15.08842728,0.0001953,53.2163,92.6293,81.4385,278.6828,0.00011067,1.474e-05,0.0,0 STARLINK-3595,1 51894U 22022AU  24057.12300282  .00001474  00000-0  11067-3 0  9995,2 51894  53.2163  92.6293 0001953  81.4385 278.6828 15.08842728111208,6917.872,95.437,541.088,538.386,0.0
51894.0,STARLINK-3595,PAYLOAD,2024-02-26 09:18:40,15.08840023,0.000166,53.2181,91.4416,89.1742,270.944,7.9282e-05,9.74e-06,0.0,0 STARLINK-3595,1 51894U 22022AU  24057.38796479  .00000974  00000-0  79282-4 0  9998,2 51894  53.2181  91.4416 0001660  89.1742 270.9440 15.08840023111244,6917.88,95.438,540.894,538.597,0.0
51894.0,STARLINK-3595,PAYLOAD,2024-02-27 09:09:27,15.08840532,0.0001628,53.2177,86.9832,95.9809,264.1369,2.5455e-05,1.17e-06,0.0,0 STARLINK-3595,1 51894U 22022AU  24058.38156747  .00000117  00000-0  25455-4 0  9999,2 51894  53.2177  86.9832 0001628  95.9809 264.1369 15.08840532111399,6917.879,95.438,540.87,538.618,0.0
